{"type": "FeatureCollection", "features": [ {"type": "Feature", "properties": {"norad_id": 66950, "name": "STARLINK-36111", "group": "last-30-days", "lat": -11.615672778668213, "lon": -9.219965901926711, "alt_km": 357.7404426128787, "timestamp": "2025-12-22T20:43:44.567492+00:00", "meta": {"OBJECT_NAME": "STARLINK-36111", "OBJECT_ID": "2025-286AB", "EPOCH": "2025-12-22T14:00:01.999872", "MEAN_MOTION": 15.72403554, "ECCENTRICITY": 9.835e-05, "INCLINATION": 53.1586, "RA_OF_ASC_NODE": 1.0325, "ARG_OF_PERICENTER": 70.0398, "MEAN_ANOMALY": 128.2038, "EPHEMERIS_TYPE": 0, "CLASSIFICATION_TYPE": "U", "NORAD_CAT_ID": 66950, "ELEMENT_SET_NO": 999, "REV_AT_EPOCH": 357, "BSTAR": -0.016307992, "MEAN_MOTION_DOT": -0.0195878, "MEAN_MOTION_DDOT": 0}, "tle": {"line1": "1 66950U 25286AB  25356.58335648 -.01958780  00000+0 -16308-1 0  9990", "line2": "2 66950  53.1586   1.0325 0000983  70.0398 128.2038 15.72403554  3579"}}, "geometry": {"type": "Point", "coordinates": [-9.219965901926711, -11.615672778668213]}}, {"type": "Feature", "properties": {"norad_id": 66951, "name": "STARLINK-35999", "group": "last-30-days", "lat": -10.098233033670345, "lon": -8.03194753207632, "alt_km": 357.5320878641696, "timestamp": "2025-12-22T20:43:44.567503+00:00", "meta": {"OBJECT_NAME": "STARLINK-35999", "OBJECT_ID": "2025-286AC", "EPOCH": "2025-12-22T14:00:01.999872", "MEAN_MOTION": 15.72398624, "ECCENTRICITY": 0.00010481, "INCLINATION": 53.1584, "RA_OF_ASC_NODE": 1.0285, "ARG_OF_PERICENTER": 69.6788, "MEAN_ANOMALY": 130.4869, "EPHEMERIS_TYPE": 0, "CLASSIFICATION_TYPE": "U", "NORAD_CAT_ID": 66951, "ELEMENT_SET_NO": 999, "REV_AT_EPOCH": 357, "BSTAR": -0.016293668, "MEAN_MOTION_DOT": -0.01956941, "MEAN_MOTION_DDOT": 0}, "tle": {"line1": "1 66951U 25286AC  25356.58335648 -.01956941  00000+0 -16294-1 0  9992", "line2": "2 66951  53.1584   1.0285 0001048  69.6788 130.4869 15.72398624  3571"}}, "geometry": {"type": "Point", "coordinates": [-8.03194753207632, -10.098233033670345]}}, {"type": "Feature", "properties": {"norad_id": 66952, "name": "STARLINK-36122", "group": "last-30-days", "lat": -13.128283664250493, "lon": -10.420874187945255, "alt_km": 357.9350709450782, "timestamp": "2025-12-22T20:43:44.567515+00:00", "meta": {"OBJECT_NAME": "STARLINK-36122", "OBJECT_ID": "2025-286AD", "EPOCH": "2025-12-22T14:00:01.999872", "MEAN_MOTION": 15.72398472, "ECCENTRICITY": 0.00011877, "INCLINATION": 53.1583, "RA_OF_ASC_NODE": 1.0369, "ARG_OF_PERICENTER": 73.4487, "MEAN_ANOMALY": 122.8841, "EPHEMERIS_TYPE": 0, "CLASSIFICATION_TYPE": "U", "NORAD_CAT_ID": 66952, "ELEMENT_SET_NO": 999, "REV_AT_EPOCH": 357, "BSTAR": -0.016290344, "MEAN_MOTION_DOT": -0.01956684, "MEAN_MOTION_DDOT": 0}, "tle": {"line1": "1 66952U 25286AD  25356.58335648 -.01956684  00000+0 -16290-1 0  9993", "line2": "2 66952  53.1583   1.0369 0001187  73.4487 122.8841 15.72398472  3573"}}, "geometry": {"type": "Point", "coordinates": [-10.420874187945255, -13.128283664250493]}}, {"type": "Feature", "properties": {"norad_id": 66953, "name": "HULIANWANG DIGUI-114", "group": "last-30-days", "lat": -38.71811805235257, "lon": -20.341547387250902, "alt_km": 1025.6002031928629, "timestamp": "2025-12-22T20:43:44.567528+00:00", "meta": {"OBJECT_NAME": "HULIANWANG DIGUI-114", "OBJECT_ID": "2025-287A", "EPOCH": "2025-12-20T09:09:14.655168", "MEAN_MOTION": 13.66161866, "ECCENTRICITY": 0.00096738, "INCLINATION": 86.496, "RA_OF_ASC_NODE": 343.3747, "ARG_OF_PERICENTER": 185.0352, "MEAN_ANOMALY": 175.071, "EPHEMERIS_TYPE": 0, "CLASSIFICATION_TYPE": "U", "NORAD_CAT_ID": 66953, "ELEMENT_SET_NO": 999, "REV_AT_EPOCH": 157, "BSTAR": 3.033618e-06, "MEAN_MOTION_DOT": 1.9e-07, "MEAN_MOTION_DDOT": 0}, "tle": {"line1": "1 66953U 25287A   25354.38141962  .00000019  00000+0  30336-5 0  9995", "line2": "2 66953  86.4960 343.3747 0009673 185.0352 175.0710 13.66161866  1572"}}, "geometry": {"type": "Point", "coordinates": [-20.341547387250902, -38.71811805235257]}}, {"type": "Feature", "properties": {"norad_id": 66954, "name": "HULIANWANG DIGUI-115", "group": "last-30-days", "lat": -29.367826712226186, "lon": -19.50012021123143, "alt_km": 1024.0743914239865, "timestamp": "2025-12-22T20:43:44.567538+00:00", "meta": {"OBJECT_NAME": "HULIANWANG DIGUI-115", "OBJECT_ID": "2025-287B", "EPOCH": "2025-12-20T14:23:56.755680", "MEAN_MOTION": 13.66603826, "ECCENTRICITY": 0.00094984, "INCLINATION": 86.4975, "RA_OF_ASC_NODE": 343.2967, "ARG_OF_PERICENTER": 182.0064, "MEAN_ANOMALY": 178.1058, "EPHEMERIS_TYPE": 0, "CLASSIFICATION_TYPE": "U", "NORAD_CAT_ID": 66954, "ELEMENT_SET_NO": 999, "REV_AT_EPOCH": 160, "BSTAR": -9.79328e-07, "MEAN_MOTION_DOT": 1.6e-07, "MEAN_MOTION_DDOT": 0}, "tle": {"line1": "1 66954U 25287B   25354.59996245  .00000016  00000+0 -97933-6 0  9996", "line2": "2 66954  86.4975 343.2967 0009498 182.0064 178.1058 13.66603826  1604"}}, "geometry": {"type": "Point", "coordinates": [-19.50012021123143, -29.367826712226186]}}, {"type": "Feature", "properties": {"norad_id": 66955, "name": "HULIANWANG DIGUI-116", "group": "last-30-days", "lat": -19.78086658130217, "lon": -18.80610196199921, "alt_km": 1021.8173572154637, "timestamp": "2025-12-22T20:43:44.567548+00:00", "meta": {"OBJECT_NAME": "HULIANWANG DIGUI-116", "OBJECT_ID": "2025-287C", "EPOCH": "2025-12-20T16:07:29.631072", "MEAN_MOTION": 13.67009251, "ECCENTRICITY": 0.00086607, "INCLINATION": 86.4918, "RA_OF_ASC_NODE": 343.2556, "ARG_OF_PERICENTER": 174.268, "MEAN_ANOMALY": 185.8579, "EPHEMERIS_TYPE": 0, "CLASSIFICATION_TYPE": "U", "NORAD_CAT_ID": 66955, "ELEMENT_SET_NO": 999, "REV_AT_EPOCH": 161, "BSTAR": 0.00012368885, "MEAN_MOTION_DOT": 1.2e-06, "MEAN_MOTION_DDOT": 0}, "tle": {"line1": "1 66955U 25287C   25354.67187073  .00000120  00000+0  12369-3 0  9999", "line2": "2 66955  86.4918 343.2556 0008660 174.2680 185.8579 13.67009251  1610"}}, "geometry": {"type": "Point", "coordinates": [-18.80610196199921, -19.78086658130217]}}, {"type": "Feature", "properties": {"norad_id": 66956, "name": "HULIANWANG DIGUI-117", "group": "last-30-days", "lat": -4.704429386482991, "lon": -17.819430883543205, "alt_km": 1016.6947343386928, "timestamp": "2025-12-22T20:43:44.567558+00:00", "meta": {"OBJECT_NAME": "HULIANWANG DIGUI-117", "OBJECT_ID": "2025-287D", "EPOCH": "2025-12-18T14:55:12.079776", "MEAN_MOTION": 13.67770338, "ECCENTRICITY": 0.00076767, "INCLINATION": 86.4971, "RA_OF_ASC_NODE": 344.0126, "ARG_OF_PERICENTER": 176.3616, "MEAN_ANOMALY": 183.76, "EPHEMERIS_TYPE": 0, "CLASSIFICATION_TYPE": "U", "NORAD_CAT_ID": 66956, "ELEMENT_SET_NO": 999, "REV_AT_EPOCH": 133, "BSTAR": 1.0922436e-05, "MEAN_MOTION_DOT": 2.6e-07, "MEAN_MOTION_DDOT": 0}, "tle": {"line1": "1 66956U 25287D   25352.62166759  .00000026  00000+0  10922-4 0  9990", "line2": "2 66956  86.4971 344.0126 0007676 176.3616 183.7600 13.67770338  1332"}}, "geometry": {"type": "Point", "coordinates": [-17.819430883543205, -4.704429386482991]}}, {"type": "Feature", "properties": {"norad_id": 66957, "name": "HULIANWANG DIGUI-118", "group": "last-30-days", "lat": -1.9593377827844276, "lon": -17.655239422881387, "alt_km": 1015.6767202318597, "timestamp": "2025-12-22T20:43:44.567568+00:00", "meta": {"OBJECT_NAME": "HULIANWANG DIGUI-118", "OBJECT_ID": "2025-287E", "EPOCH": "2025-12-21T00:50:13.849728", "MEAN_MOTION": 13.6751011, "ECCENTRICITY": 0.00054729, "INCLINATION": 86.4946, "RA_OF_ASC_NODE": 343.1304, "ARG_OF_PERICENTER": 170.9065, "MEAN_ANOMALY": 189.2194, "EPHEMERIS_TYPE": 0, "CLASSIFICATION_TYPE": "U", "NORAD_CAT_ID": 66957, "ELEMENT_SET_NO": 999, "REV_AT_EPOCH": 166, "BSTAR": 0.00013223305, "MEAN_MOTION_DOT": 1.28e-06, "MEAN_MOTION_DDOT": 0}, "tle": {"line1": "1 66957U 25287E   25355.03488252  .00000128  00000+0  13223-3 0  9993", "line2": "2 66957  86.4946 343.1304 0005472 170.9065 189.2194 13.67510110  1668"}}, "geometry": {"type": "Point", "coordinates": [-17.655239422881387, -1.9593377827844276]}}, {"type": "Feature", "properties": {"norad_id": 66958, "name": "CZ-6A R/B", "group": "last-30-days", "lat": -54.85699597895926, "lon": 167.2305010593362, "alt_km": 993.3176901416819, "timestamp": "2025-12-22T20:43:44.567578+00:00", "meta": {"OBJECT_NAME": "CZ-6A R/B", "OBJECT_ID": "2025-287F", "EPOCH": "2025-12-22T14:26:55.203648", "MEAN_MOTION": 13.94921326, "ECCENTRICITY": 0.01072178, "INCLINATION": 86.5063, "RA_OF_ASC_NODE": 342.3513, "ARG_OF_PERICENTER": 72.4964, "MEAN_ANOMALY": 288.7893, "EPHEMERIS_TYPE": 0, "CLASSIFICATION_TYPE": "U", "NORAD_CAT_ID": 66958, "ELEMENT_SET_NO": 999, "REV_AT_EPOCH": 191, "BSTAR": 5.1077925e-05, "MEAN_MOTION_DOT": 9.1e-07, "MEAN_MOTION_DDOT": 0}, "tle": {"line1": "1 66958U 25287F   25356.60202782  .00000091  00000+0  51078-4 0  9990", "line2": "2 66958  86.5063 342.3513 0107217  72.4964 288.7893 13.94921326  1911"}}, "geometry": {"type": "Point", "coordinates": [167.2305010593362, -54.85699597895926]}}, {"type": "Feature", "properties": {"norad_id": 66959, "name": "STARLINK-35887", "group": "last-30-days", "lat": 42.00678267667694, "lon": -149.8337769383606, "alt_km": 338.955355110078, "timestamp": "2025-12-22T20:43:44.567590+00:00", "meta": {"OBJECT_NAME": "STARLINK-35887", "OBJECT_ID": "2025-288A", "EPOCH": "2025-12-22T14:00:01.999872", "MEAN_MOTION": 15.75066509, "ECCENTRICITY": 0.00016116, "INCLINATION": 43.0032, "RA_OF_ASC_NODE": 106.9711, "ARG_OF_PERICENTER": 287.4829, "MEAN_ANOMALY": 21.9169, "EPHEMERIS_TYPE": 0, "CLASSIFICATION_TYPE": "U", "NORAD_CAT_ID": 66959, "ELEMENT_SET_NO": 999, "REV_AT_EPOCH": 341, "BSTAR": -0.00055060449, "MEAN_MOTION_DOT": -0.00084317, "MEAN_MOTION_DDOT": 0}, "tle": {"line1": "1 66959U 25288A   25356.58335648 -.00084317  00000+0 -55060-3 0  9996", "line2": "2 66959  43.0032 106.9711 0001611 287.4829  21.9169 15.75066509  3413"}}, "geometry": {"type": "Point", "coordinates": [-149.8337769383606, 42.00678267667694]}}]}